STARLINK-36482          
1 67309U 26002E   26015.83337963 -.01389472  00000+0 -60783-2 0  9992
2 67309  42.9975 270.6509 0001624 273.4079 196.5910 15.86536993  2926
STARLINK-36491          
1 67310U 26002F   26015.83337963 -.01338182  00000+0 -58304-2 0  9992
2 67310  42.9975 270.6929 0001685 276.0592 177.1922 15.86508280  2926
STARLINK-36495          
1 67311U 26002G   26015.83337963 -.01358036  00000+0 -59247-2 0  9990
2 67311  42.9973 270.6747 0001714 272.9320 187.3778 15.86523238  3079
STARLINK-36485          
1 67312U 26002H   26015.83337963 -.01370424  00000+0 -59901-2 0  9993
2 67312  42.9973 270.6674 0001705 272.2217 190.9525 15.86511785  2924
STARLINK-36445          
1 67313U 26002J   26015.83337963 -.01370021  00000+0 -59810-2 0  9996
2 67313  42.9970 270.6628 0001615 269.1535 195.7893 15.86536663  3079
STARLINK-36476          
1 67314U 26002K   26015.83337963 -.01383408  00000+0 -60511-2 0  9990
2 67314  42.9974 270.6560 0001655 271.9759 195.7965 15.86526109  2929
STARLINK-36463          
1 67315U 26002L   26015.83337963 -.01390987  00000+0 -60867-2 0  9995
2 67315  42.9971 270.6438 0001481 273.5190 198.8867 15.86536450  2986
STARLINK-36461          
1 67316U 26002M   26015.83337963 -.01411888  00000+0 -61945-2 0  9998
2 67316  42.9970 270.6362 0001434 276.4322 198.9829 15.86528922  3074
STARLINK-36450          
1 67317U 26002N   26015.83337963 -.01398204  00000+0 -61284-2 0  9991
2 67317  42.9972 270.6303 0001589 274.7901 202.9821 15.86517340  3077
STARLINK-36498          
1 67318U 26002P   26015.83337963 -.01424973  00000+0 -62614-2 0  9993
2 67318  42.9969 270.6177 0001501 274.5783 208.1560 15.86526047  2984
STARLINK-36470          
1 67319U 26002Q   26015.83337963 -.01406498  00000+0 -61699-2 0  9998
2 67319  42.9972 270.6241 0001566 273.3417 206.9135 15.86518717  2982
STARLINK-36500          
1 67320U 26002R   26015.83337963 -.01423603  00000+0 -62541-2 0  9994
2 67320  42.9972 270.6120 0001524 264.6996 220.4471 15.86526753  2982
