CCSDS_OMM_VERS = 2.0
CREATION_DATE  = 
ORIGINATOR     = 

OBJECT_NAME    = STARLINK-36482
OBJECT_ID      = 2026-002E
CENTER_NAME    = EARTH
REF_FRAME      = TEME
TIME_SYSTEM    = UTC
MEAN_ELEMENT_THEORY = SGP/SGP4

EPOCH          = 2026-01-15T20:00:04.000032
MEAN_MOTION    = 15.86536993
ECCENTRICITY   = .0001624
INCLINATION    = 42.9975
RA_OF_ASC_NODE = 270.6509
ARG_OF_PERICENTER = 273.4079
MEAN_ANOMALY   = 196.5910

EPHEMERIS_TYPE = 0
CLASSIFICATION_TYPE = U
NORAD_CAT_ID   = 67309
ELEMENT_SET_NO = 999
REV_AT_EPOCH   = 292
BSTAR          = -.60783E-2
MEAN_MOTION_DOT = -.1389472E-1
MEAN_MOTION_DDOT = 0

CCSDS_OMM_VERS = 2.0
CREATION_DATE  = 
ORIGINATOR     = 

OBJECT_NAME    = STARLINK-36491
OBJECT_ID      = 2026-002F
CENTER_NAME    = EARTH
REF_FRAME      = TEME
TIME_SYSTEM    = UTC
MEAN_ELEMENT_THEORY = SGP/SGP4

EPOCH          = 2026-01-15T20:00:04.000032
MEAN_MOTION    = 15.86508280
ECCENTRICITY   = .0001685
INCLINATION    = 42.9975
RA_OF_ASC_NODE = 270.6929
ARG_OF_PERICENTER = 276.0592
MEAN_ANOMALY   = 177.1922

EPHEMERIS_TYPE = 0
CLASSIFICATION_TYPE = U
NORAD_CAT_ID   = 67310
ELEMENT_SET_NO = 999
REV_AT_EPOCH   = 292
BSTAR          = -.58304E-2
MEAN_MOTION_DOT = -.1338182E-1
MEAN_MOTION_DDOT = 0

CCSDS_OMM_VERS = 2.0
CREATION_DATE  = 
ORIGINATOR     = 

OBJECT_NAME    = STARLINK-36495
OBJECT_ID      = 2026-002G
CENTER_NAME    = EARTH
REF_FRAME      = TEME
TIME_SYSTEM    = UTC
MEAN_ELEMENT_THEORY = SGP/SGP4

EPOCH          = 2026-01-15T20:00:04.000032
MEAN_MOTION    = 15.86523238
ECCENTRICITY   = .0001714
INCLINATION    = 42.9973
RA_OF_ASC_NODE = 270.6747
ARG_OF_PERICENTER = 272.9320
MEAN_ANOMALY   = 187.3778

EPHEMERIS_TYPE = 0
CLASSIFICATION_TYPE = U
NORAD_CAT_ID   = 67311
ELEMENT_SET_NO = 999
REV_AT_EPOCH   = 307
BSTAR          = -.59247E-2
MEAN_MOTION_DOT = -.1358036E-1
MEAN_MOTION_DDOT = 0

CCSDS_OMM_VERS = 2.0
CREATION_DATE  = 
ORIGINATOR     = 

OBJECT_NAME    = STARLINK-36485
OBJECT_ID      = 2026-002H
CENTER_NAME    = EARTH
REF_FRAME      = TEME
TIME_SYSTEM    = UTC
MEAN_ELEMENT_THEORY = SGP/SGP4

EPOCH          = 2026-01-15T20:00:04.000032
MEAN_MOTION    = 15.86511785
ECCENTRICITY   = .0001705
INCLINATION    = 42.9973
RA_OF_ASC_NODE = 270.6674
ARG_OF_PERICENTER = 272.2217
MEAN_ANOMALY   = 190.9525

EPHEMERIS_TYPE = 0
CLASSIFICATION_TYPE = U
NORAD_CAT_ID   = 67312
ELEMENT_SET_NO = 999
REV_AT_EPOCH   = 292
BSTAR          = -.59901E-2
MEAN_MOTION_DOT = -.1370424E-1
MEAN_MOTION_DDOT = 0

CCSDS_OMM_VERS = 2.0
CREATION_DATE  = 
ORIGINATOR     = 

OBJECT_NAME    = STARLINK-36445
OBJECT_ID      = 2026-002J
CENTER_NAME    = EARTH
REF_FRAME      = TEME
TIME_SYSTEM    = UTC
MEAN_ELEMENT_THEORY = SGP/SGP4

EPOCH          = 2026-01-15T20:00:04.000032
MEAN_MOTION    = 15.86536663
ECCENTRICITY   = .0001615
INCLINATION    = 42.9970
RA_OF_ASC_NODE = 270.6628
ARG_OF_PERICENTER = 269.1535
MEAN_ANOMALY   = 195.7893

EPHEMERIS_TYPE = 0
CLASSIFICATION_TYPE = U
NORAD_CAT_ID   = 67313
ELEMENT_SET_NO = 999
REV_AT_EPOCH   = 307
BSTAR          = -.5981E-2
MEAN_MOTION_DOT = -.1370021E-1
MEAN_MOTION_DDOT = 0

CCSDS_OMM_VERS = 2.0
CREATION_DATE  = 
ORIGINATOR     = 

OBJECT_NAME    = STARLINK-36476
OBJECT_ID      = 2026-002K
CENTER_NAME    = EARTH
REF_FRAME      = TEME
TIME_SYSTEM    = UTC
MEAN_ELEMENT_THEORY = SGP/SGP4

EPOCH          = 2026-01-15T20:00:04.000032
MEAN_MOTION    = 15.86526109
ECCENTRICITY   = .0001655
INCLINATION    = 42.9974
RA_OF_ASC_NODE = 270.6560
ARG_OF_PERICENTER = 271.9759
MEAN_ANOMALY   = 195.7965

EPHEMERIS_TYPE = 0
CLASSIFICATION_TYPE = U
NORAD_CAT_ID   = 67314
ELEMENT_SET_NO = 999
REV_AT_EPOCH   = 292
BSTAR          = -.60511E-2
MEAN_MOTION_DOT = -.1383408E-1
MEAN_MOTION_DDOT = 0

CCSDS_OMM_VERS = 2.0
CREATION_DATE  = 
ORIGINATOR     = 

OBJECT_NAME    = STARLINK-36463
OBJECT_ID      = 2026-002L
CENTER_NAME    = EARTH
REF_FRAME      = TEME
TIME_SYSTEM    = UTC
MEAN_ELEMENT_THEORY = SGP/SGP4

EPOCH          = 2026-01-15T20:00:04.000032
MEAN_MOTION    = 15.86536450
ECCENTRICITY   = .0001481
INCLINATION    = 42.9971
RA_OF_ASC_NODE = 270.6438
ARG_OF_PERICENTER = 273.5190
MEAN_ANOMALY   = 198.8867

EPHEMERIS_TYPE = 0
CLASSIFICATION_TYPE = U
NORAD_CAT_ID   = 67315
ELEMENT_SET_NO = 999
REV_AT_EPOCH   = 298
BSTAR          = -.60867E-2
MEAN_MOTION_DOT = -.1390987E-1
MEAN_MOTION_DDOT = 0

CCSDS_OMM_VERS = 2.0
CREATION_DATE  = 
ORIGINATOR     = 

OBJECT_NAME    = STARLINK-36461
OBJECT_ID      = 2026-002M
CENTER_NAME    = EARTH
REF_FRAME      = TEME
TIME_SYSTEM    = UTC
MEAN_ELEMENT_THEORY = SGP/SGP4

EPOCH          = 2026-01-15T20:00:04.000032
MEAN_MOTION    = 15.86528922
ECCENTRICITY   = .0001434
INCLINATION    = 42.9970
RA_OF_ASC_NODE = 270.6362
ARG_OF_PERICENTER = 276.4322
MEAN_ANOMALY   = 198.9829

EPHEMERIS_TYPE = 0
CLASSIFICATION_TYPE = U
NORAD_CAT_ID   = 67316
ELEMENT_SET_NO = 999
REV_AT_EPOCH   = 307
BSTAR          = -.61945E-2
MEAN_MOTION_DOT = -.1411888E-1
MEAN_MOTION_DDOT = 0

CCSDS_OMM_VERS = 2.0
CREATION_DATE  = 
ORIGINATOR     = 

OBJECT_NAME    = STARLINK-36450
OBJECT_ID      = 2026-002N
CENTER_NAME    = EARTH
REF_FRAME      = TEME
TIME_SYSTEM    = UTC
MEAN_ELEMENT_THEORY = SGP/SGP4

EPOCH          = 2026-01-15T20:00:04.000032
MEAN_MOTION    = 15.86517340
ECCENTRICITY   = .0001589
INCLINATION    = 42.9972
RA_OF_ASC_NODE = 270.6303
ARG_OF_PERICENTER = 274.7901
MEAN_ANOMALY   = 202.9821

EPHEMERIS_TYPE = 0
CLASSIFICATION_TYPE = U
NORAD_CAT_ID   = 67317
ELEMENT_SET_NO = 999
REV_AT_EPOCH   = 307
BSTAR          = -.61284E-2
MEAN_MOTION_DOT = -.1398204E-1
MEAN_MOTION_DDOT = 0

CCSDS_OMM_VERS = 2.0
CREATION_DATE  = 
ORIGINATOR     = 

OBJECT_NAME    = STARLINK-36498
OBJECT_ID      = 2026-002P
CENTER_NAME    = EARTH
REF_FRAME      = TEME
TIME_SYSTEM    = UTC
MEAN_ELEMENT_THEORY = SGP/SGP4

EPOCH          = 2026-01-15T20:00:04.000032
MEAN_MOTION    = 15.86526047
ECCENTRICITY   = .0001501
INCLINATION    = 42.9969
RA_OF_ASC_NODE = 270.6177
ARG_OF_PERICENTER = 274.5783
MEAN_ANOMALY   = 208.1560

EPHEMERIS_TYPE = 0
CLASSIFICATION_TYPE = U
NORAD_CAT_ID   = 67318
ELEMENT_SET_NO = 999
REV_AT_EPOCH   = 298
BSTAR          = -.62614E-2
MEAN_MOTION_DOT = -.1424973E-1
MEAN_MOTION_DDOT = 0

CCSDS_OMM_VERS = 2.0
CREATION_DATE  = 
ORIGINATOR     = 

OBJECT_NAME    = STARLINK-36470
OBJECT_ID      = 2026-002Q
CENTER_NAME    = EARTH
REF_FRAME      = TEME
TIME_SYSTEM    = UTC
MEAN_ELEMENT_THEORY = SGP/SGP4

EPOCH          = 2026-01-15T20:00:04.000032
MEAN_MOTION    = 15.86518717
ECCENTRICITY   = .0001566
INCLINATION    = 42.9972
RA_OF_ASC_NODE = 270.6241
ARG_OF_PERICENTER = 273.3417
MEAN_ANOMALY   = 206.9135

EPHEMERIS_TYPE = 0
CLASSIFICATION_TYPE = U
NORAD_CAT_ID   = 67319
ELEMENT_SET_NO = 999
REV_AT_EPOCH   = 298
BSTAR          = -.61699E-2
MEAN_MOTION_DOT = -.1406498E-1
MEAN_MOTION_DDOT = 0

CCSDS_OMM_VERS = 2.0
CREATION_DATE  = 
ORIGINATOR     = 

OBJECT_NAME    = STARLINK-36500
OBJECT_ID      = 2026-002R
CENTER_NAME    = EARTH
REF_FRAME      = TEME
TIME_SYSTEM    = UTC
MEAN_ELEMENT_THEORY = SGP/SGP4

EPOCH          = 2026-01-15T20:00:04.000032
MEAN_MOTION    = 15.86526753
ECCENTRICITY   = .0001524
INCLINATION    = 42.9972
RA_OF_ASC_NODE = 270.6120
ARG_OF_PERICENTER = 264.6996
MEAN_ANOMALY   = 220.4471

EPHEMERIS_TYPE = 0
CLASSIFICATION_TYPE = U
NORAD_CAT_ID   = 67320
ELEMENT_SET_NO = 999
REV_AT_EPOCH   = 298
BSTAR          = -.62541E-2
MEAN_MOTION_DOT = -.1423603E-1
MEAN_MOTION_DDOT = 0

